         0.0000000        6.4727868        0.0137366       52.6682000       23.9377000      276.7208000       81.7737000
      2700.0000000        6.4727868        0.0137366       52.6682000       22.7537725      277.5388951      131.0056618
      5400.0000000        6.4727868        0.0137366       52.6682000       21.5698451      278.3569901      180.2376235
      8100.0000000        6.4727868        0.0137366       52.6682000       20.3859176      279.1750852      229.4695853
     10800.0000000        6.4727868        0.0137366       52.6682000       19.2019902      279.9931802      278.7015470
     13500.0000000        6.4727868        0.0137366       52.6682000       18.0180627      280.8112753      327.9335088
     16200.0000000        6.4727868        0.0137366       52.6682000       16.8341353      281.6293703       17.1654706
     18900.0000000        6.4727868        0.0137366       52.6682000       15.6502078      282.4474654       66.3974323
     21600.0000000        6.4727868        0.0137366       52.6682000       14.4662804      283.2655604      115.6293941
     24300.0000000        6.4727868        0.0137366       52.6682000       13.2823529      284.0836555      164.8613559
     27000.0000000        6.4727868        0.0137366       52.6682000       12.0984255      284.9017505      214.0933176
     29700.0000000        6.4727868        0.0137366       52.6682000       10.9144980      285.7198456      263.3252794
     32400.0000000        6.4727868        0.0137366       52.6682000        9.7305706      286.5379407      312.5572411
     35100.0000000        6.4727868        0.0137366       52.6682000        8.5466431      287.3560357        1.7892029
     37800.0000000        6.4727868        0.0137366       52.6682000        7.3627157      288.1741308       51.0211647
     40500.0000000        6.4727868        0.0137366       52.6682000        6.1787882      288.9922258      100.2531264
     43200.0000000        6.4727868        0.0137366       52.6682000        4.9948607      289.8103209      149.4850882


 1 90014U SGP4-VAL 93051.38558242 +.00711372  97635-5  13083-2 0 0021                                                                                                                                                                                                                                                                                                                                                                                                                                                           
 2 90014  62.8217  97.3465 0233042 119.4400 242.9881 17.6709972501011                                                                                                                                                                                                                                                                                                                                                                                                                                                           

         0.0000000       17.6766353        0.0233042       62.8217000       97.3465000      119.4400000      242.9881000
Warning: Decay condition. Distance from the Geoid (Km) =    -81.254

